CCSDS_OMM_VERS = 2.0
CREATION_DATE  = 
ORIGINATOR     = 

OBJECT_NAME    = GLOBAL-34
OBJECT_ID      = 2026-043A
CENTER_NAME    = EARTH
REF_FRAME      = TEME
TIME_SYSTEM    = UTC
MEAN_ELEMENT_THEORY = SGP/SGP4

EPOCH          = 2026-03-09T11:23:30.998976
MEAN_MOTION    = 15.31488019
ECCENTRICITY   = .0006885
INCLINATION    = 42.0215
RA_OF_ASC_NODE = 76.7399
ARG_OF_PERICENTER = 289.2632
MEAN_ANOMALY   = 70.7460

EPHEMERIS_TYPE = 0
CLASSIFICATION_TYPE = U
NORAD_CAT_ID   = 68098
ELEMENT_SET_NO = 999
REV_AT_EPOCH   = 53
BSTAR          = .45822E-3
MEAN_MOTION_DOT = .14018E-3
MEAN_MOTION_DDOT = 0

CCSDS_OMM_VERS = 2.0
CREATION_DATE  = 
ORIGINATOR     = 

OBJECT_NAME    = ELECTRON R/B
OBJECT_ID      = 2026-043B
CENTER_NAME    = EARTH
REF_FRAME      = TEME
TIME_SYSTEM    = UTC
MEAN_ELEMENT_THEORY = SGP/SGP4

EPOCH          = 2026-03-09T08:29:55.162752
MEAN_MOTION    = 15.95326621
ECCENTRICITY   = .0170832
INCLINATION    = 42.0142
RA_OF_ASC_NODE = 75.7245
ARG_OF_PERICENTER = 290.5279
MEAN_ANOMALY   = 67.7323

EPHEMERIS_TYPE = 0
CLASSIFICATION_TYPE = U
NORAD_CAT_ID   = 68099
ELEMENT_SET_NO = 999
REV_AT_EPOCH   = 53
BSTAR          = .13617E-2
MEAN_MOTION_DOT = .2866137E-1
MEAN_MOTION_DDOT = .76307E-5

CCSDS_OMM_VERS = 2.0
CREATION_DATE  = 
ORIGINATOR     = 

OBJECT_NAME    = ELECTRON KICK STAGE R/B
OBJECT_ID      = 2026-043C
CENTER_NAME    = EARTH
REF_FRAME      = TEME
TIME_SYSTEM    = UTC
MEAN_ELEMENT_THEORY = SGP/SGP4

EPOCH          = 2026-03-08T23:30:50.222880
MEAN_MOTION    = 15.93327838
ECCENTRICITY   = .01604948
INCLINATION    = 42.1213
RA_OF_ASC_NODE = 78.2465
ARG_OF_PERICENTER = 43.4691
MEAN_ANOMALY   = 317.8696

EPHEMERIS_TYPE = 0
CLASSIFICATION_TYPE = U
NORAD_CAT_ID   = 68100
ELEMENT_SET_NO = 999
REV_AT_EPOCH   = 46
BSTAR          = .18946407E-2
MEAN_MOTION_DOT = .2693817E-1
MEAN_MOTION_DDOT = .8074097E-5

