GLOBAL-34               
1 68098U 26043A   26068.47466434  .00014018  00000+0  45822-3 0  9993
2 68098  42.0215  76.7399 0006885 289.2632  70.7460 15.31488019   539
ELECTRON R/B            
1 68099U 26043B   26068.35411068  .02866137  76307-5  13617-2 0  9998
2 68099  42.0142  75.7245 0170832 290.5279  67.7323 15.95326621   538
ELECTRON KICK STAGE R/B 
1 68100U 26043C   26067.97974795  .02693817  80741-5  18946-2 0  9999
2 68100  42.1213  78.2465 0160494  43.4691 317.8696 15.93327838   462
